;FLAVOR:UltiGCode
;TIME:175
;MATERIAL:97
;MATERIAL2:0
;NOZZLE_DIAMETER:0.4
;MINX:101.07
;MINY:104.853
;MINZ:0.27
;MAXX:121.9
;MAXY:118.121
;MAXZ:3.97
;TARGET_MACHINE.NAME:Ultimaker 2+
;Generated with Cura_SteamEngine 5.10.0
G0 F3000 Y50 ;avoid prime blob
M104 S230 ; Régler la température de l'extrudeur à 230°C
M140 S58 ; Régle la température du plateau à 58°C
M221 S100 ; Augmente le material flow de +0%
M82 ;absolute extrusion mode
G92 E0
G92 E0
G10
;LAYER_COUNT:38
;LAYER:0
M107
G0 F7200 X102.749 Y106.257 Z0.27
;TYPE:SKIRT
G11
G1 F1740 X103.442 Y105.713 E0.09515
G1 X104.103 Y105.347 E0.17675
G1 X104.917 Y105.047 E0.27044
G1 X105.793 Y104.854 E0.36732
G1 X114.252 Y104.853 E1.28089
G1 X115.024 Y104.867 E1.36428
G1 X115.939 Y104.976 E1.4638
G1 X116.606 Y105.163 E1.53861
G1 X117.346 Y105.492 E1.62608
G1 X118.117 Y105.972 E1.72416
G1 X118.884 Y106.703 E1.83859
G1 X120.522 Y108.364 E2.09054
G1 X120.92 Y108.852 E2.15855
G1 X121.404 Y109.672 E2.26138
G1 X121.697 Y110.443 E2.35046
G1 X121.872 Y111.313 E2.4463
G1 X121.9 Y112.132 E2.53481
G1 X121.823 Y112.818 E2.60936
G1 X121.619 Y113.601 E2.69675
G1 X121.3 Y114.329 E2.78259
G1 X120.787 Y115.16 E2.88806
G1 X119.806 Y116.167 E3.03989
G1 X119.209 Y116.74 E3.12926
G1 X118.499 Y117.289 E3.22619
G1 X117.778 Y117.683 E3.31493
G1 X117.137 Y117.918 E3.38866
G1 X116.343 Y118.082 E3.47622
G1 X115.388 Y118.121 E3.57945
G1 X114.76 Y118.051 E3.64769
G1 X111.407 Y117.448 E4.01563
G1 X108.732 Y117.05 E4.30771
G1 X105.501 Y116.662 E4.65916
G1 X104.944 Y116.546 E4.72061
G1 X104.062 Y116.219 E4.8222
G1 X103.228 Y115.727 E4.92678
G1 X102.696 Y115.282 E5.00168
G1 X102.073 Y114.566 E5.10418
G1 X101.649 Y113.873 E5.19193
G1 X101.357 Y113.174 E5.27374
G1 X101.148 Y112.321 E5.36859
G1 X101.07 Y111.469 E5.46099
G1 X101.091 Y109.863 E5.63445
G1 X101.17 Y109.143 E5.71268
G1 X101.398 Y108.296 E5.80741
G1 X101.761 Y107.501 E5.9018
G1 X102.145 Y106.922 E5.97683
G1 X102.749 Y106.257 E6.07386
G0 F7200 X102.998 Y106.57
G1 F1740 X103.638 Y106.062 E6.1621
G1 X104.243 Y105.722 E6.23705
G1 X105.003 Y105.438 E6.32468
G1 X105.838 Y105.254 E6.41702
G1 X114.245 Y105.253 E7.32498
G1 X115.017 Y105.267 E7.40837
G1 X115.833 Y105.362 E7.49709
G1 X116.443 Y105.529 E7.56539
G1 X117.183 Y105.858 E7.65286
G1 X117.874 Y106.292 E7.74098
G1 X118.599 Y106.984 E7.84923
G1 X120.212 Y108.617 E8.09712
G1 X120.61 Y109.105 E8.16513
G1 X121.03 Y109.814 E8.25413
G1 X121.323 Y110.585 E8.34321
G1 X121.472 Y111.329 E8.42515
G1 X121.502 Y112.087 E8.50708
G1 X121.425 Y112.773 E8.58164
G1 X121.232 Y113.498 E8.66266
G1 X120.96 Y114.119 E8.73588
G1 X120.472 Y114.91 E8.83626
G1 X119.529 Y115.878 E8.98221
G1 X118.932 Y116.451 E9.07158
G1 X118.306 Y116.939 E9.1573
G1 X117.64 Y117.307 E9.23948
G1 X116.999 Y117.542 E9.31321
G1 X116.325 Y117.682 E9.38756
G1 X115.432 Y117.723 E9.48411
G1 X114.831 Y117.657 E9.5494
G1 X111.471 Y117.053 E9.9181
G1 X108.791 Y116.654 E10.21073
G1 X105.583 Y116.27 E10.55967
G1 X105.026 Y116.154 E10.62111
G1 X104.263 Y115.873 E10.70893
G1 X103.485 Y115.42 E10.80616
G1 X102.953 Y114.975 E10.88107
G1 X102.413 Y114.356 E10.96978
G1 X102.017 Y113.716 E11.05106
G1 X101.745 Y113.077 E11.12607
G1 X101.546 Y112.284 E11.21437
G1 X101.47 Y111.474 E11.30223
G1 X101.489 Y109.907 E11.47148
G1 X101.568 Y109.187 E11.54971
G1 X101.763 Y108.46 E11.631
G1 X102.096 Y107.72 E11.71864
G1 X102.443 Y107.189 E11.78714
G1 X102.998 Y106.57 E11.87693
G0 F7200 X103.296 Y106.837
G1 F1740 X103.836 Y106.409 E11.95135
G1 X104.385 Y106.096 E12.0196
G1 X105.089 Y105.829 E12.10092
G1 X105.883 Y105.654 E12.18873
G1 X114.238 Y105.653 E13.09107
G1 X115.01 Y105.667 E13.17446
G1 X115.73 Y105.749 E13.25272
G1 X116.28 Y105.895 E13.31418
G1 X117.02 Y106.224 E13.40164
G1 X117.629 Y106.61 E13.47951
G1 X118.315 Y107.265 E13.58195
G1 X119.902 Y108.87 E13.82571
G1 X120.3 Y109.358 E13.89372
G1 X120.657 Y109.959 E13.96922
G1 X120.931 Y110.666 E14.05111
G1 X121.072 Y111.347 E14.12622
G1 X121.104 Y112.042 E14.20136
G1 X121.027 Y112.728 E14.27591
G1 X120.846 Y113.393 E14.35034
G1 X120.62 Y113.909 E14.41118
G1 X120.155 Y114.663 E14.50685
G1 X119.252 Y115.589 E14.64654
G1 X118.655 Y116.162 E14.73591
G1 X118.111 Y116.59 E14.81067
G1 X117.502 Y116.931 E14.88605
G1 X116.861 Y117.166 E14.95978
G1 X116.305 Y117.283 E15.02114
G1 X115.476 Y117.325 E15.11079
G1 X114.875 Y117.259 E15.17609
G1 X114.238 Y117.138 E15.24612
G1 X111.53 Y116.657 E15.54316
G1 X108.85 Y116.258 E15.83579
G1 X105.665 Y115.878 E16.18221
G1 X105.108 Y115.762 E16.24365
G1 X104.462 Y115.526 E16.31793
G1 X103.742 Y115.113 E16.40758
G1 X103.21 Y114.668 E16.48248
G1 X102.752 Y114.144 E16.55764
G1 X102.384 Y113.557 E16.63247
G1 X102.132 Y112.977 E16.70077
G1 X101.944 Y112.246 E16.78228
G1 X101.87 Y111.478 E16.86561
G1 X101.887 Y109.951 E17.03054
G1 X101.966 Y109.231 E17.10876
G1 X102.129 Y108.622 E17.17685
G1 X102.433 Y107.936 E17.25789
G1 X102.741 Y107.456 E17.31948
G1 X103.296 Y106.837 E17.40927
G0 F7200 X103.546 Y107.149
G1 F1740 X104.037 Y106.755 E17.47726
G1 X104.529 Y106.469 E17.53872
G1 X105.175 Y106.22 E17.61349
G1 X105.928 Y106.054 E17.69677
G1 X114.231 Y106.053 E18.59349
G1 X114.967 Y106.065 E18.67299
G1 X115.627 Y106.136 E18.74468
G1 X116.177 Y106.282 E18.80614
G1 X116.806 Y106.562 E18.8805
G1 X117.383 Y106.928 E18.9543
G1 X118.031 Y107.546 E19.051
G1 X119.594 Y109.125 E19.29095
G1 X119.956 Y109.562 E19.35224
G1 X120.313 Y110.163 E19.42774
G1 X120.54 Y110.75 E19.49571
G1 X120.673 Y111.368 E19.56398
G1 X120.706 Y112 E19.63233
G1 X120.64 Y112.625 E19.7002
G1 X120.478 Y113.235 E19.76837
G1 X120.279 Y113.699 E19.82289
G1 X119.837 Y114.416 E19.91386
G1 X118.975 Y115.301 E20.04729
G1 X118.406 Y115.849 E20.1326
G1 X117.913 Y116.242 E20.20069
G1 X117.362 Y116.556 E20.26919
G1 X116.775 Y116.775 E20.33685
G1 X116.282 Y116.884 E20.39138
G1 X115.52 Y116.927 E20.47381
G1 X114.919 Y116.861 E20.53911
G1 X114.308 Y116.744 E20.60629
G1 X111.589 Y116.261 E20.90454
G1 X108.909 Y115.862 E21.19717
G1 X105.747 Y115.486 E21.54107
G1 X105.19 Y115.37 E21.60252
G1 X104.659 Y115.178 E21.6635
G1 X103.996 Y114.804 E21.74571
G1 X103.509 Y114.403 E21.81385
G1 X103.089 Y113.929 E21.88224
G1 X102.751 Y113.398 E21.95022
G1 X102.499 Y112.818 E22.01852
G1 X102.342 Y112.206 E22.08676
G1 X102.27 Y111.482 E22.16533
G1 X102.285 Y109.992 E22.32626
G1 X102.353 Y109.332 E22.39792
G1 X102.496 Y108.782 E22.45929
G1 X102.772 Y108.149 E22.53387
G1 X103.041 Y107.721 E22.58847
G1 X103.546 Y107.149 E22.67088
G0 F7200 X103.798 Y107.459
G1 F1740 X104.238 Y107.101 E22.73214
G1 X104.73 Y106.815 E22.7936
G1 X105.261 Y106.611 E22.85504
G1 X105.973 Y106.454 E22.93378
G1 X114.225 Y106.453 E23.82499
G1 X114.927 Y106.463 E23.90082
G1 X115.524 Y106.523 E23.96562
G1 X116.074 Y106.669 E24.02708
G1 X116.592 Y106.9 E24.08833
G1 X117.137 Y107.246 E24.15805
G1 X117.747 Y107.828 E24.24911
G1 X119.288 Y109.383 E24.48554
G1 X119.614 Y109.769 E24.54011
G1 X119.941 Y110.31 E24.60838
G1 X120.15 Y110.837 E24.66961
G1 X120.274 Y111.392 E24.73103
G1 X120.308 Y111.961 E24.79259
G1 X120.253 Y112.525 E24.85379
G1 X120.11 Y113.077 E24.91537
G1 X119.911 Y113.541 E24.9699
G1 X119.519 Y114.17 E25.04994
G1 X118.697 Y115.013 E25.17711
G1 X118.154 Y115.538 E25.25868
G1 X117.712 Y115.896 E25.32011
G1 X117.22 Y116.182 E25.38157
G1 X116.689 Y116.384 E25.44293
G1 X116.196 Y116.493 E25.49746
G1 X115.563 Y116.529 E25.56593
G1 X114.994 Y116.468 E25.62774
G1 X114.378 Y116.35 E25.69547
G1 X111.648 Y115.865 E25.99493
G1 X108.968 Y115.466 E26.28756
G1 X105.829 Y115.094 E26.62894
G1 X105.272 Y114.978 E26.69039
G1 X104.798 Y114.803 E26.74496
G1 X104.248 Y114.493 E26.81315
G1 X103.806 Y114.135 E26.87458
G1 X103.425 Y113.712 E26.93606
G1 X103.117 Y113.236 E26.99729
G1 X102.886 Y112.716 E27.05874
G1 X102.74 Y112.165 E27.1203
G1 X102.67 Y111.486 E27.19402
G1 X102.683 Y110.03 E27.35128
G1 X102.74 Y109.433 E27.41605
G1 X102.883 Y108.883 E27.47742
G1 X103.111 Y108.362 E27.53884
G1 X103.38 Y107.934 E27.59344
G1 X103.798 Y107.459 E27.66177
G0 F7200 X104.053 Y107.767
G1 F1740 X104.442 Y107.445 E27.71631
G1 X104.877 Y107.187 E27.77093
G1 X105.347 Y107.002 E27.82548
G1 X106.018 Y106.854 E27.89969
G1 X114.219 Y106.853 E28.7854
G1 X114.921 Y106.863 E28.86123
G1 X115.424 Y106.91 E28.91579
G1 X115.914 Y107.036 E28.97043
G1 X116.377 Y107.238 E29.02498
G1 X116.893 Y107.566 E29.09102
G1 X117.463 Y108.11 E29.17611
G1 X118.982 Y109.641 E29.40904
G1 X119.308 Y110.027 E29.4636
G1 X119.57 Y110.46 E29.51826
G1 X119.76 Y110.928 E29.57281
G1 X119.875 Y111.42 E29.62738
G1 X119.91 Y111.925 E29.68205
G1 X119.865 Y112.428 E29.73659
G1 X119.742 Y112.919 E29.79126
G1 X119.543 Y113.383 E29.84578
G1 X119.203 Y113.922 E29.91461
G1 X118.419 Y114.726 E30.03589
G1 X117.899 Y115.23 E30.1141
G1 X117.509 Y115.552 E30.16872
G1 X117.074 Y115.809 E30.22329
G1 X116.603 Y115.993 E30.2779
G1 X116.11 Y116.102 E30.33243
G1 X115.605 Y116.131 E30.38706
G1 X115.069 Y116.075 E30.44526
G1 X114.448 Y115.956 E30.51355
G1 X111.707 Y115.469 E30.81422
G1 X109.027 Y115.07 E31.10685
G1 X105.907 Y114.702 E31.44614
G1 X105.411 Y114.603 E31.50077
G1 X104.937 Y114.428 E31.55534
G1 X104.497 Y114.18 E31.60988
G1 X104.101 Y113.865 E31.66453
G1 X103.759 Y113.492 E31.71919
G1 X103.481 Y113.071 E31.77367
G1 X103.272 Y112.61 E31.82834
G1 X103.138 Y112.122 E31.88299
G1 X103.07 Y111.49 E31.95164
G1 X103.083 Y110.034 E32.1089
G1 X103.128 Y109.53 E32.16355
G1 X103.251 Y109.04 E32.21811
G1 X103.45 Y108.575 E32.27273
G1 X103.719 Y108.147 E32.32733
G1 X104.053 Y107.767 E32.38197
;MESH:Pi??ce1.STL
G0 F7200 X106.552 Y109.437
G0 X106.552 Y110.332
;TYPE:WALL-OUTER
G1 F1740 X106.552 Y111.252 E32.49127
G1 X114.38 Y111.252 E33.42123
G1 X115.675 Y112.545 E33.63864
G1 X116.325 Y111.896 E33.74776
G1 X114.761 Y110.332 E34.01052
G1 X106.552 Y110.332 E34.98575
G0 F7200 X106.552 Y110.532
G0 X107.012 Y110.792
;TYPE:WALL-INNER
G1 F1281.5 X114.57 Y110.792 E36.00547
G1 X115.675 Y111.896 E36.21621
G10
;MESH:NONMESH
G0 F600 X115.675 Y111.896 Z0.37
G0 F7200 X114.718 Y112.854
G0 X105.669 Y112.137
G0 X104.053 Y107.767
;TIME_ELAPSED:15.839437
;LAYER:1
;note -- min layer time used
M106 S255
;TYPE:SKIRT
G11
G1 F1052.9 X104.442 Y107.445 E36.23641
G1 X104.877 Y107.187 E36.25664
G1 X105.347 Y107.002 E36.27685
G1 X106.018 Y106.854 E36.30433
G1 X114.219 Y106.853 E36.63237
G1 X114.921 Y106.863 E36.66045
G1 X115.424 Y106.91 E36.68066
G1 X115.914 Y107.036 E36.7009
G1 X116.377 Y107.238 E36.72111
G1 X116.893 Y107.566 E36.74556
G1 X117.463 Y108.11 E36.77708
G1 X118.982 Y109.641 E36.86335
G1 X119.308 Y110.027 E36.88356
G1 X119.57 Y110.46 E36.9038
G1 X119.76 Y110.928 E36.924
G1 X119.875 Y111.42 E36.94422
G1 X119.91 Y111.925 E36.96446
G1 X119.865 Y112.428 E36.98466
G1 X119.742 Y112.919 E37.00491
G1 X119.543 Y113.383 E37.02511
G1 X119.203 Y113.922 E37.0506
G1 X118.419 Y114.726 E37.09552
G1 X117.899 Y115.23 E37.12448
G1 X117.509 Y115.552 E37.14471
G1 X117.074 Y115.809 E37.16492
G1 X116.603 Y115.993 E37.18515
G1 X116.11 Y116.102 E37.20535
G1 X115.605 Y116.131 E37.22558
G1 X115.069 Y116.075 E37.24714
G1 X114.448 Y115.956 E37.27243
G1 X111.707 Y115.469 E37.38378
G1 X109.027 Y115.07 E37.49217
G1 X105.907 Y114.702 E37.61783
G1 X105.411 Y114.603 E37.63806
G1 X104.937 Y114.428 E37.65827
G1 X104.497 Y114.18 E37.67848
G1 X104.101 Y113.865 E37.69872
G1 X103.759 Y113.492 E37.71896
G1 X103.481 Y113.071 E37.73914
G1 X103.272 Y112.61 E37.75939
G1 X103.138 Y112.122 E37.77963
G1 X103.07 Y111.49 E37.80505
G1 X103.083 Y110.034 E37.8633
G1 X103.128 Y109.53 E37.88354
G1 X103.251 Y109.04 E37.90374
G1 X103.45 Y108.575 E37.92398
G1 X103.719 Y108.147 E37.9442
G1 X104.053 Y107.767 E37.96443
;MESH:Pi??ce1.STL
G0 F7200 X106.697 Y109.357
G0 X106.472 Y110.252
;TYPE:WALL-OUTER
G1 F1052.9 X106.472 Y111.332 E38.00763
G1 X114.348 Y111.332 E38.32267
G1 X115.675 Y112.657 E38.39768
G1 X116.437 Y111.896 E38.44076
G1 X114.793 Y110.252 E38.53376
G1 X106.472 Y110.252 E38.8666
G0 F7200 X106.472 Y110.452
G0 X106.842 Y110.622
;TYPE:WALL-INNER
G1 F1257.3 X106.842 Y110.962 E38.87816
G1 X114.264 Y110.962 E39.13051
G1 F803.1 X114.87 Y111.092 E39.16212
G1 F790.8 X114.619 Y110.622 E39.18966
G1 F1229.8 X106.842 Y110.622 E39.45953
G0 F7200 X114.87 Y111.092
G1 F577 X115.675 Y111.896 E39.53678
G10
;MESH:NONMESH
G0 F600 X115.675 Y111.896 Z0.47
G0 F7200 X114.447 Y111.087
G0 X106.697 Y110.477
G0 X106.697 Y109.357
G0 X104.053 Y107.767
;TIME_ELAPSED:21.413388
;LAYER:2
;note -- min layer time used
;TYPE:SKIRT
G11
G1 F1052.9 X104.442 Y107.445 E39.55698
G1 X104.877 Y107.187 E39.57721
G1 X105.347 Y107.002 E39.59741
G1 X106.018 Y106.854 E39.6249
G1 X114.219 Y106.853 E39.95294
G1 X114.921 Y106.863 E39.98102
G1 X115.424 Y106.91 E40.00123
G1 X115.914 Y107.036 E40.02146
G1 X116.377 Y107.238 E40.04167
G1 X116.893 Y107.566 E40.06613
G1 X117.463 Y108.11 E40.09764
G1 X118.982 Y109.641 E40.18391
G1 X119.308 Y110.027 E40.20412
G1 X119.57 Y110.46 E40.22437
G1 X119.76 Y110.928 E40.24457
G1 X119.875 Y111.42 E40.26478
G1 X119.91 Y111.925 E40.28503
G1 X119.865 Y112.428 E40.30523
G1 X119.742 Y112.919 E40.32548
G1 X119.543 Y113.383 E40.34567
G1 X119.203 Y113.922 E40.37116
G1 X118.419 Y114.726 E40.41608
G1 X117.899 Y115.23 E40.44505
G1 X117.509 Y115.552 E40.46528
G1 X117.074 Y115.809 E40.48549
G1 X116.603 Y115.993 E40.50571
G1 X116.11 Y116.102 E40.52591
G1 X115.605 Y116.131 E40.54614
G1 X115.069 Y116.075 E40.5677
G1 X114.448 Y115.956 E40.59299
G1 X111.707 Y115.469 E40.70435
G1 X109.027 Y115.07 E40.81273
G1 X105.907 Y114.702 E40.9384
G1 X105.411 Y114.603 E40.95863
G1 X104.937 Y114.428 E40.97884
G1 X104.497 Y114.18 E40.99904
G1 X104.101 Y113.865 E41.01928
G1 X103.759 Y113.492 E41.03952
G1 X103.481 Y113.071 E41.0597
G1 X103.272 Y112.61 E41.07995
G1 X103.138 Y112.122 E41.10019
G1 X103.07 Y111.49 E41.12562
G1 X103.083 Y110.034 E41.18386
G1 X103.128 Y109.53 E41.2041
G1 X103.251 Y109.04 E41.22431
G1 X103.45 Y108.575 E41.24454
G1 X103.719 Y108.147 E41.26476
G1 X104.053 Y107.767 E41.285
;MESH:Pi??ce1.STL
G0 F7200 X106.697 Y109.357
G0 X106.472 Y110.252
;TYPE:WALL-OUTER
G1 F1052.9 X106.472 Y111.332 E41.3282
G1 X114.348 Y111.332 E41.64324
G1 X115.675 Y112.657 E41.71825
G1 X116.437 Y111.896 E41.76133
G1 X114.793 Y110.252 E41.85432
G1 X106.472 Y110.252 E42.18716
G0 F7200 X106.472 Y110.452
G0 X106.842 Y110.622
;TYPE:WALL-INNER
G1 F1257.3 X106.842 Y110.962 E42.19872
G1 X114.264 Y110.962 E42.45107
G1 F803.1 X114.87 Y111.092 E42.48268
G1 F790.8 X114.619 Y110.622 E42.51023
G1 F1229.8 X106.842 Y110.622 E42.78009
G0 F7200 X114.87 Y111.092
G1 F577 X115.675 Y111.896 E42.85734
;MESH:NONMESH
G0 F600 X115.675 Y111.896 Z0.57
G0 F7200 X114.447 Y111.087
G0 X106.753 Y110.533
G0 X106.472 Y110.252
;TIME_ELAPSED:26.540092
;LAYER:3
;note -- min layer time used
;TYPE:WALL-OUTER
;MESH:Pi??ce1.STL
G1 F600 X106.472 Y111.332 E42.90054
G1 X114.348 Y111.332 E43.21558
G1 X115.675 Y112.657 E43.29059
G1 X116.437 Y111.896 E43.33367
G1 X114.793 Y110.252 E43.42667
G1 X106.472 Y110.252 E43.75951
G0 F7200 X106.472 Y110.452
G0 X106.842 Y110.622
;TYPE:WALL-INNER
G1 F716.5 X106.842 Y110.962 E43.77107
G1 X114.264 Y110.962 E44.02342
G1 F457.6 X114.87 Y111.092 E44.05502
G1 F450.6 X114.619 Y110.622 E44.08257
G1 F700.8 X106.842 Y110.622 E44.35243
G0 F7200 X114.87 Y111.092
G1 F328.8 X115.675 Y111.896 E44.42969
;MESH:NONMESH
G0 F600 X115.675 Y111.896 Z0.67
G0 F7200 X114.447 Y111.087
G0 X106.753 Y110.533
G0 X106.472 Y110.252
;TIME_ELAPSED:30.781367
;LAYER:4
;note -- min layer time used
;TYPE:WALL-OUTER
;MESH:Pi??ce1.STL
G1 F600 X106.472 Y111.332 E44.47289
G1 X114.348 Y111.332 E44.78793
G1 X115.675 Y112.657 E44.86294
G1 X116.437 Y111.896 E44.90601
G1 X114.793 Y110.252 E44.99901
G1 X106.472 Y110.252 E45.33185
G0 F7200 X106.472 Y110.452
G0 X106.842 Y110.622
;TYPE:WALL-INNER
G1 F716.5 X106.842 Y110.962 E45.34341
G1 X114.264 Y110.962 E45.59576
G1 F457.6 X114.87 Y111.092 E45.62737
G1 F450.6 X114.619 Y110.622 E45.65492
G1 F700.8 X106.842 Y110.622 E45.92478
G0 F7200 X114.87 Y111.092
G1 F328.8 X115.675 Y111.896 E46.00203
;MESH:NONMESH
G0 F600 X115.675 Y111.896 Z0.77
G0 F7200 X114.447 Y111.087
G0 X106.753 Y110.533
G0 X106.472 Y110.252
;TIME_ELAPSED:35.022642
;LAYER:5
;note -- min layer time used
;TYPE:WALL-OUTER
;MESH:Pi??ce1.STL
G1 F600 X106.472 Y111.332 E46.04523
G1 X114.348 Y111.332 E46.36027
G1 X115.675 Y112.657 E46.43528
G1 X116.437 Y111.896 E46.47836
G1 X114.793 Y110.252 E46.57136
G1 X106.472 Y110.252 E46.9042
G0 F7200 X106.472 Y110.452
G0 X106.842 Y110.622
;TYPE:WALL-INNER
G1 F716.5 X106.842 Y110.962 E46.91576
G1 X114.264 Y110.962 E47.1681
G1 F457.6 X114.87 Y111.092 E47.19971
G1 F450.6 X114.619 Y110.622 E47.22726
G1 F700.8 X106.842 Y110.622 E47.49712
G0 F7200 X114.87 Y111.092
G1 F328.8 X115.675 Y111.896 E47.57437
;MESH:NONMESH
G0 F600 X115.675 Y111.896 Z0.87
G0 F7200 X114.447 Y111.087
G0 X106.753 Y110.533
G0 X106.472 Y110.252
;TIME_ELAPSED:39.263917
;LAYER:6
;note -- min layer time used
;TYPE:WALL-OUTER
;MESH:Pi??ce1.STL
G1 F600 X106.472 Y111.332 E47.61757
G1 X114.348 Y111.332 E47.93261
G1 X115.675 Y112.657 E48.00762
G1 X116.437 Y111.896 E48.0507
G1 X114.793 Y110.252 E48.1437
G1 X106.472 Y110.252 E48.47654
G0 F7200 X106.472 Y110.452
G0 X106.842 Y110.622
;TYPE:WALL-INNER
G1 F716.5 X106.842 Y110.962 E48.4881
G1 X114.264 Y110.962 E48.74045
G1 F457.6 X114.87 Y111.092 E48.77206
G1 F450.6 X114.619 Y110.622 E48.7996
G1 F700.8 X106.842 Y110.622 E49.06946
G0 F7200 X114.87 Y111.092
G1 F328.8 X115.675 Y111.896 E49.14672
;MESH:NONMESH
G0 F600 X115.675 Y111.896 Z0.97
G0 F7200 X114.447 Y111.087
G0 X106.753 Y110.533
G0 X106.472 Y110.252
;TIME_ELAPSED:43.505191
;LAYER:7
;note -- min layer time used
;TYPE:WALL-OUTER
;MESH:Pi??ce1.STL
G1 F600 X106.472 Y111.332 E49.18992
G1 X114.348 Y111.332 E49.50496
G1 X115.675 Y112.657 E49.57997
G1 X116.437 Y111.896 E49.62304
G1 X114.793 Y110.252 E49.71604
G1 X106.472 Y110.252 E50.04888
G0 F7200 X106.472 Y110.452
G0 X106.842 Y110.622
;TYPE:WALL-INNER
G1 F716.5 X106.842 Y110.962 E50.06044
G1 X114.264 Y110.962 E50.31279
G1 F457.6 X114.87 Y111.092 E50.3444
G1 F450.6 X114.619 Y110.622 E50.37195
G1 F700.8 X106.842 Y110.622 E50.64181
G0 F7200 X114.87 Y111.092
G1 F328.8 X115.675 Y111.896 E50.71906
;MESH:NONMESH
G0 F600 X115.675 Y111.896 Z1.07
G0 F7200 X114.447 Y111.087
G0 X106.753 Y110.533
G0 X106.472 Y110.252
;TIME_ELAPSED:47.746466
;LAYER:8
;note -- min layer time used
;TYPE:WALL-OUTER
;MESH:Pi??ce1.STL
G1 F600 X106.472 Y111.332 E50.76226
G1 X114.348 Y111.332 E51.0773
G1 X115.675 Y112.657 E51.15231
G1 X116.437 Y111.896 E51.19539
G1 X114.793 Y110.252 E51.28839
G1 X106.472 Y110.252 E51.62123
G0 F7200 X106.472 Y110.452
G0 X106.842 Y110.622
;TYPE:WALL-INNER
G1 F716.5 X106.842 Y110.962 E51.63279
G1 X114.264 Y110.962 E51.88513
G1 F457.6 X114.87 Y111.092 E51.91674
G1 F450.6 X114.619 Y110.622 E51.94429
G1 F700.8 X106.842 Y110.622 E52.21415
G0 F7200 X114.87 Y111.092
G1 F328.8 X115.675 Y111.896 E52.2914
;MESH:NONMESH
G0 F600 X115.675 Y111.896 Z1.17
G0 F7200 X114.447 Y111.087
G0 X106.753 Y110.533
G0 X106.472 Y110.252
;TIME_ELAPSED:51.987741
;LAYER:9
;note -- min layer time used
;TYPE:WALL-OUTER
;MESH:Pi??ce1.STL
G1 F600 X106.472 Y111.332 E52.3346
G1 X114.348 Y111.332 E52.64964
G1 X115.675 Y112.657 E52.72465
G1 X116.437 Y111.896 E52.76773
G1 X114.793 Y110.252 E52.86073
G1 X106.472 Y110.252 E53.19357
G0 F7200 X106.472 Y110.452
G0 X106.842 Y110.622
;TYPE:WALL-INNER
G1 F716.5 X106.842 Y110.962 E53.20513
G1 X114.264 Y110.962 E53.45748
G1 F457.6 X114.87 Y111.092 E53.48909
G1 F450.6 X114.619 Y110.622 E53.51663
G1 F700.8 X106.842 Y110.622 E53.7865
G0 F7200 X114.87 Y111.092
G1 F328.8 X115.675 Y111.896 E53.86375
;MESH:NONMESH
G0 F600 X115.675 Y111.896 Z1.27
G0 F7200 X114.447 Y111.087
G0 X106.753 Y110.533
G0 X106.472 Y110.252
;TIME_ELAPSED:56.229016
;LAYER:10
;note -- min layer time used
;TYPE:WALL-OUTER
;MESH:Pi??ce1.STL
G1 F600 X106.472 Y111.332 E53.90695
G1 X114.348 Y111.332 E54.22199
G1 X115.675 Y112.657 E54.297
G1 X116.437 Y111.896 E54.34008
G1 X114.793 Y110.252 E54.43307
G1 X106.472 Y110.252 E54.76591
G0 F7200 X106.472 Y110.452
G0 X106.842 Y110.622
;TYPE:WALL-INNER
G1 F716.5 X106.842 Y110.962 E54.77747
G1 X114.264 Y110.962 E55.02982
G1 F457.6 X114.87 Y111.092 E55.06143
G1 F450.6 X114.619 Y110.622 E55.08898
G1 F700.8 X106.842 Y110.622 E55.35884
G0 F7200 X114.87 Y111.092
G1 F328.8 X115.675 Y111.896 E55.43609
;MESH:NONMESH
G0 F600 X115.675 Y111.896 Z1.37
G0 F7200 X114.447 Y111.087
G0 X106.753 Y110.533
G0 X106.472 Y110.252
;TIME_ELAPSED:60.470291
;LAYER:11
;note -- min layer time used
;TYPE:WALL-OUTER
;MESH:Pi??ce1.STL
G1 F600 X106.472 Y111.332 E55.47929
G1 X114.348 Y111.332 E55.79433
G1 X115.675 Y112.657 E55.86934
G1 X116.437 Y111.896 E55.91242
G1 X114.793 Y110.252 E56.00542
G1 X106.472 Y110.252 E56.33826
G0 F7200 X106.472 Y110.452
G0 X106.842 Y110.622
;TYPE:WALL-INNER
G1 F716.5 X106.842 Y110.962 E56.34982
G1 X114.264 Y110.962 E56.60217
G1 F457.6 X114.87 Y111.092 E56.63377
G1 F450.6 X114.619 Y110.622 E56.66132
G1 F700.8 X106.842 Y110.622 E56.93118
G0 F7200 X114.87 Y111.092
G1 F328.8 X115.675 Y111.896 E57.00844
;MESH:NONMESH
G0 F600 X115.675 Y111.896 Z1.47
G0 F7200 X114.447 Y111.087
G0 X106.753 Y110.533
G0 X106.472 Y110.252
;TIME_ELAPSED:64.711565
;LAYER:12
;note -- min layer time used
;TYPE:WALL-OUTER
;MESH:Pi??ce1.STL
G1 F600 X106.472 Y111.332 E57.05164
G1 X114.348 Y111.332 E57.36668
G1 X115.675 Y112.657 E57.44169
G1 X116.437 Y111.896 E57.48476
G1 X114.793 Y110.252 E57.57776
G1 X106.472 Y110.252 E57.9106
G0 F7200 X106.472 Y110.452
G0 X106.842 Y110.622
;TYPE:WALL-INNER
G1 F716.5 X106.842 Y110.962 E57.92216
G1 X114.264 Y110.962 E58.17451
G1 F457.6 X114.87 Y111.092 E58.20612
G1 F450.6 X114.619 Y110.622 E58.23367
G1 F700.8 X106.842 Y110.622 E58.50353
G0 F7200 X114.87 Y111.092
G1 F328.8 X115.675 Y111.896 E58.58078
;MESH:NONMESH
G0 F600 X115.675 Y111.896 Z1.57
G0 F7200 X114.447 Y111.087
G0 X106.753 Y110.533
G0 X106.472 Y110.252
;TIME_ELAPSED:68.952840
;LAYER:13
;note -- min layer time used
;TYPE:WALL-OUTER
;MESH:Pi??ce1.STL
G1 F600 X106.472 Y111.332 E58.62398
G1 X114.348 Y111.332 E58.93902
G1 X115.675 Y112.657 E59.01403
G1 X116.437 Y111.896 E59.05711
G1 X114.793 Y110.252 E59.15011
G1 X106.472 Y110.252 E59.48295
G0 F7200 X106.472 Y110.452
G0 X106.842 Y110.622
;TYPE:WALL-INNER
G1 F716.5 X106.842 Y110.962 E59.49451
G1 X114.264 Y110.962 E59.74685
G1 F457.6 X114.87 Y111.092 E59.77846
G1 F450.6 X114.619 Y110.622 E59.80601
G1 F700.8 X106.842 Y110.622 E60.07587
G0 F7200 X114.87 Y111.092
G1 F328.8 X115.675 Y111.896 E60.15312
;MESH:NONMESH
G0 F600 X115.675 Y111.896 Z1.67
G0 F7200 X114.447 Y111.087
G0 X106.753 Y110.533
G0 X106.472 Y110.252
;TIME_ELAPSED:73.194115
;LAYER:14
;note -- min layer time used
;TYPE:WALL-OUTER
;MESH:Pi??ce1.STL
G1 F600 X106.472 Y111.332 E60.19632
G1 X114.348 Y111.332 E60.51136
G1 X115.675 Y112.657 E60.58637
G1 X116.437 Y111.896 E60.62945
G1 X114.793 Y110.252 E60.72245
G1 X106.472 Y110.252 E61.05529
G0 F7200 X106.472 Y110.452
G0 X106.842 Y110.622
;TYPE:WALL-INNER
G1 F716.5 X106.842 Y110.962 E61.06685
G1 X114.264 Y110.962 E61.3192
G1 F457.6 X114.87 Y111.092 E61.35081
G1 F450.6 X114.619 Y110.622 E61.37835
G1 F700.8 X106.842 Y110.622 E61.64822
G0 F7200 X114.87 Y111.092
G1 F328.8 X115.675 Y111.896 E61.72547
;MESH:NONMESH
G0 F600 X115.675 Y111.896 Z1.77
G0 F7200 X114.447 Y111.087
G0 X106.753 Y110.533
G0 X106.472 Y110.252
;TIME_ELAPSED:77.435390
;LAYER:15
;note -- min layer time used
;TYPE:WALL-OUTER
;MESH:Pi??ce1.STL
G1 F600 X106.472 Y111.332 E61.76867
G1 X114.348 Y111.332 E62.08371
G1 X115.675 Y112.657 E62.15872
G1 X116.437 Y111.896 E62.20179
G1 X114.793 Y110.252 E62.29479
G1 X106.472 Y110.252 E62.62763
G0 F7200 X106.472 Y110.452
G0 X106.842 Y110.622
;TYPE:WALL-INNER
G1 F716.5 X106.842 Y110.962 E62.63919
G1 X114.264 Y110.962 E62.89154
G1 F457.6 X114.87 Y111.092 E62.92315
G1 F450.6 X114.619 Y110.622 E62.9507
G1 F700.8 X106.842 Y110.622 E63.22056
G0 F7200 X114.87 Y111.092
G1 F328.8 X115.675 Y111.896 E63.29781
;MESH:NONMESH
G0 F600 X115.675 Y111.896 Z1.87
G0 F7200 X114.447 Y111.087
G0 X106.753 Y110.533
G0 X106.472 Y110.252
;TIME_ELAPSED:81.676665
;LAYER:16
;note -- min layer time used
;TYPE:WALL-OUTER
;MESH:Pi??ce1.STL
G1 F600 X106.472 Y111.332 E63.34101
G1 X114.348 Y111.332 E63.65605
G1 X115.675 Y112.657 E63.73106
G1 X116.437 Y111.896 E63.77414
G1 X114.793 Y110.252 E63.86714
G1 X106.472 Y110.252 E64.19998
G0 F7200 X106.472 Y110.452
G0 X106.842 Y110.622
;TYPE:WALL-INNER
G1 F716.5 X106.842 Y110.962 E64.21154
G1 X114.264 Y110.962 E64.46388
G1 F457.6 X114.87 Y111.092 E64.49549
G1 F450.6 X114.619 Y110.622 E64.52304
G1 F700.8 X106.842 Y110.622 E64.7929
G0 F7200 X114.87 Y111.092
G1 F328.8 X115.675 Y111.896 E64.87015
;MESH:NONMESH
G0 F600 X115.675 Y111.896 Z1.97
G0 F7200 X114.447 Y111.087
G0 X106.753 Y110.533
G0 X106.472 Y110.252
;TIME_ELAPSED:85.917940
;LAYER:17
;note -- min layer time used
;TYPE:WALL-OUTER
;MESH:Pi??ce1.STL
G1 F600 X106.472 Y111.332 E64.91335
G1 X114.348 Y111.332 E65.22839
G1 X115.675 Y112.657 E65.3034
G1 X116.437 Y111.896 E65.34648
G1 X114.793 Y110.252 E65.43948
G1 X106.472 Y110.252 E65.77232
G0 F7200 X106.472 Y110.452
G0 X106.842 Y110.622
;TYPE:WALL-INNER
G1 F716.5 X106.842 Y110.962 E65.78388
G1 X114.264 Y110.962 E66.03623
G1 F457.6 X114.87 Y111.092 E66.06784
G1 F450.6 X114.619 Y110.622 E66.09538
G1 F700.8 X106.842 Y110.622 E66.36525
G0 F7200 X114.87 Y111.092
G1 F328.8 X115.675 Y111.896 E66.4425
;MESH:NONMESH
G0 F600 X115.675 Y111.896 Z2.07
G0 F7200 X114.447 Y111.087
G0 X106.753 Y110.533
G0 X106.472 Y110.252
;TIME_ELAPSED:90.159214
;LAYER:18
;note -- min layer time used
;TYPE:WALL-OUTER
;MESH:Pi??ce1.STL
G1 F600 X106.472 Y111.332 E66.4857
G1 X114.348 Y111.332 E66.80074
G1 X115.675 Y112.657 E66.87575
G1 X116.437 Y111.896 E66.91883
G1 X114.793 Y110.252 E67.01182
G1 X106.472 Y110.252 E67.34466
G0 F7200 X106.472 Y110.452
G0 X106.842 Y110.622
;TYPE:WALL-INNER
G1 F716.5 X106.842 Y110.962 E67.35622
G1 X114.264 Y110.962 E67.60857
G1 F457.6 X114.87 Y111.092 E67.64018
G1 F450.6 X114.619 Y110.622 E67.66773
G1 F700.8 X106.842 Y110.622 E67.93759
G0 F7200 X114.87 Y111.092
G1 F328.8 X115.675 Y111.896 E68.01484
;MESH:NONMESH
G0 F600 X115.675 Y111.896 Z2.17
G0 F7200 X114.447 Y111.087
G0 X106.753 Y110.533
G0 X106.472 Y110.252
;TIME_ELAPSED:94.400489
;LAYER:19
;note -- min layer time used
;TYPE:WALL-OUTER
;MESH:Pi??ce1.STL
G1 F600 X106.472 Y111.332 E68.05804
G1 X114.348 Y111.332 E68.37308
G1 X115.675 Y112.657 E68.44809
G1 X116.437 Y111.896 E68.49117
G1 X114.793 Y110.252 E68.58417
G1 X106.472 Y110.252 E68.91701
G0 F7200 X106.472 Y110.452
G0 X106.842 Y110.622
;TYPE:WALL-INNER
G1 F716.5 X106.842 Y110.962 E68.92857
G1 X114.264 Y110.962 E69.18092
G1 F457.6 X114.87 Y111.092 E69.21253
G1 F450.6 X114.619 Y110.622 E69.24007
G1 F700.8 X106.842 Y110.622 E69.50993
G0 F7200 X114.87 Y111.092
G1 F328.8 X115.675 Y111.896 E69.58719
;MESH:NONMESH
G0 F600 X115.675 Y111.896 Z2.27
G0 F7200 X114.447 Y111.087
G0 X106.753 Y110.533
G0 X106.472 Y110.252
;TIME_ELAPSED:98.641764
;LAYER:20
;note -- min layer time used
;TYPE:WALL-OUTER
;MESH:Pi??ce1.STL
G1 F600 X106.472 Y111.332 E69.63039
G1 X114.348 Y111.332 E69.94543
G1 X115.675 Y112.657 E70.02044
G1 X116.437 Y111.896 E70.06351
G1 X114.793 Y110.252 E70.15651
G1 X106.472 Y110.252 E70.48935
G0 F7200 X106.472 Y110.452
G0 X106.842 Y110.622
;TYPE:WALL-INNER
G1 F716.5 X106.842 Y110.962 E70.50091
G1 X114.264 Y110.962 E70.75326
G1 F457.6 X114.87 Y111.092 E70.78487
G1 F450.6 X114.619 Y110.622 E70.81242
G1 F700.8 X106.842 Y110.622 E71.08228
G0 F7200 X114.87 Y111.092
G1 F328.8 X115.675 Y111.896 E71.15953
;MESH:NONMESH
G0 F600 X115.675 Y111.896 Z2.37
G0 F7200 X114.447 Y111.087
G0 X106.753 Y110.533
G0 X106.472 Y110.252
;TIME_ELAPSED:102.883039
;LAYER:21
;note -- min layer time used
;TYPE:WALL-OUTER
;MESH:Pi??ce1.STL
G1 F600 X106.472 Y111.332 E71.20273
G1 X114.348 Y111.332 E71.51777
G1 X115.675 Y112.657 E71.59278
G1 X116.437 Y111.896 E71.63586
G1 X114.793 Y110.252 E71.72886
G1 X106.472 Y110.252 E72.0617
G0 F7200 X106.472 Y110.452
G0 X106.842 Y110.622
;TYPE:WALL-INNER
G1 F716.5 X106.842 Y110.962 E72.07326
G1 X114.264 Y110.962 E72.3256
G1 F457.6 X114.87 Y111.092 E72.35721
G1 F450.6 X114.619 Y110.622 E72.38476
G1 F700.8 X106.842 Y110.622 E72.65462
G0 F7200 X114.87 Y111.092
G1 F328.8 X115.675 Y111.896 E72.73187
;MESH:NONMESH
G0 F600 X115.675 Y111.896 Z2.47
G0 F7200 X114.447 Y111.087
G0 X106.753 Y110.533
G0 X106.472 Y110.252
;TIME_ELAPSED:107.124314
;LAYER:22
;note -- min layer time used
;TYPE:WALL-OUTER
;MESH:Pi??ce1.STL
G1 F600 X106.472 Y111.332 E72.77507
G1 X114.348 Y111.332 E73.09011
G1 X115.675 Y112.657 E73.16512
G1 X116.437 Y111.896 E73.2082
G1 X114.793 Y110.252 E73.3012
G1 X106.472 Y110.252 E73.63404
G0 F7200 X106.472 Y110.452
G0 X106.842 Y110.622
;TYPE:WALL-INNER
G1 F716.5 X106.842 Y110.962 E73.6456
G1 X114.264 Y110.962 E73.89795
G1 F457.6 X114.87 Y111.092 E73.92956
G1 F450.6 X114.619 Y110.622 E73.9571
G1 F700.8 X106.842 Y110.622 E74.22697
G0 F7200 X114.87 Y111.092
G1 F328.8 X115.675 Y111.896 E74.30422
;MESH:NONMESH
G0 F600 X115.675 Y111.896 Z2.57
G0 F7200 X114.447 Y111.087
G0 X106.753 Y110.533
G0 X106.472 Y110.252
;TIME_ELAPSED:111.365589
;LAYER:23
;note -- min layer time used
;TYPE:WALL-OUTER
;MESH:Pi??ce1.STL
G1 F600 X106.472 Y111.332 E74.34742
G1 X114.348 Y111.332 E74.66246
G1 X115.675 Y112.657 E74.73747
G1 X116.437 Y111.896 E74.78054
G1 X114.793 Y110.252 E74.87354
G1 X106.472 Y110.252 E75.20638
G0 F7200 X106.472 Y110.452
G0 X106.842 Y110.622
;TYPE:WALL-INNER
G1 F716.5 X106.842 Y110.962 E75.21794
G1 X114.264 Y110.962 E75.47029
G1 F457.6 X114.87 Y111.092 E75.5019
G1 F450.6 X114.619 Y110.622 E75.52945
G1 F700.8 X106.842 Y110.622 E75.79931
G0 F7200 X114.87 Y111.092
G1 F328.8 X115.675 Y111.896 E75.87656
;MESH:NONMESH
G0 F600 X115.675 Y111.896 Z2.67
G0 F7200 X114.447 Y111.087
G0 X106.753 Y110.533
G0 X106.472 Y110.252
;TIME_ELAPSED:115.606863
;LAYER:24
;note -- min layer time used
;TYPE:WALL-OUTER
;MESH:Pi??ce1.STL
G1 F600 X106.472 Y111.332 E75.91976
G1 X114.348 Y111.332 E76.2348
G1 X115.675 Y112.657 E76.30981
G1 X116.437 Y111.896 E76.35289
G1 X114.793 Y110.252 E76.44589
G1 X106.472 Y110.252 E76.77873
G0 F7200 X106.472 Y110.452
G0 X106.842 Y110.622
;TYPE:WALL-INNER
G1 F716.5 X106.842 Y110.962 E76.79029
G1 X114.264 Y110.962 E77.04263
G1 F457.6 X114.87 Y111.092 E77.07424
G1 F450.6 X114.619 Y110.622 E77.10179
G1 F700.8 X106.842 Y110.622 E77.37165
G0 F7200 X114.87 Y111.092
G1 F328.8 X115.675 Y111.896 E77.44891
;MESH:NONMESH
G0 F600 X115.675 Y111.896 Z2.77
G0 F7200 X114.447 Y111.087
G0 X106.753 Y110.533
G0 X106.472 Y110.252
;TIME_ELAPSED:119.848138
;LAYER:25
;note -- min layer time used
;TYPE:WALL-OUTER
;MESH:Pi??ce1.STL
G1 F600 X106.472 Y111.332 E77.49211
G1 X114.348 Y111.332 E77.80715
G1 X115.675 Y112.657 E77.88216
G1 X116.437 Y111.896 E77.92523
G1 X114.793 Y110.252 E78.01823
G1 X106.472 Y110.252 E78.35107
G0 F7200 X106.472 Y110.452
G0 X106.842 Y110.622
;TYPE:WALL-INNER
G1 F716.5 X106.842 Y110.962 E78.36263
G1 X114.264 Y110.962 E78.61498
G1 F457.6 X114.87 Y111.092 E78.64659
G1 F450.6 X114.619 Y110.622 E78.67413
G1 F700.8 X106.842 Y110.622 E78.944
G0 F7200 X114.87 Y111.092
G1 F328.8 X115.675 Y111.896 E79.02125
;MESH:NONMESH
G0 F600 X115.675 Y111.896 Z2.87
G0 F7200 X114.447 Y111.087
G0 X106.753 Y110.533
G0 X106.472 Y110.252
;TIME_ELAPSED:124.089413
;LAYER:26
;note -- min layer time used
;TYPE:WALL-OUTER
;MESH:Pi??ce1.STL
G1 F600 X106.472 Y111.332 E79.06445
G1 X114.348 Y111.332 E79.37949
G1 X115.675 Y112.657 E79.4545
G1 X116.437 Y111.896 E79.49758
G1 X114.793 Y110.252 E79.59057
G1 X106.472 Y110.252 E79.92341
G0 F7200 X106.472 Y110.452
G0 X106.842 Y110.622
;TYPE:WALL-INNER
G1 F716.5 X106.842 Y110.962 E79.93497
G1 X114.264 Y110.962 E80.18732
G1 F457.6 X114.87 Y111.092 E80.21893
G1 F450.6 X114.619 Y110.622 E80.24648
G1 F700.8 X106.842 Y110.622 E80.51634
G0 F7200 X114.87 Y111.092
G1 F328.8 X115.675 Y111.896 E80.59359
;MESH:NONMESH
G0 F600 X115.675 Y111.896 Z2.97
G0 F7200 X114.447 Y111.087
G0 X106.753 Y110.533
G0 X106.472 Y110.252
;TIME_ELAPSED:128.330688
;LAYER:27
;note -- min layer time used
;TYPE:WALL-OUTER
;MESH:Pi??ce1.STL
G1 F600 X106.472 Y111.332 E80.63679
G1 X114.348 Y111.332 E80.95183
G1 X115.675 Y112.657 E81.02684
G1 X116.437 Y111.896 E81.06992
G1 X114.793 Y110.252 E81.16292
G1 X106.472 Y110.252 E81.49576
G0 F7200 X106.472 Y110.452
G0 X106.842 Y110.622
;TYPE:WALL-INNER
G1 F716.5 X106.842 Y110.962 E81.50732
G1 X114.264 Y110.962 E81.75967
G1 F457.6 X114.87 Y111.092 E81.79128
G1 F450.6 X114.619 Y110.622 E81.81882
G1 F700.8 X106.842 Y110.622 E82.08868
G0 F7200 X114.87 Y111.092
G1 F328.8 X115.675 Y111.896 E82.16594
;MESH:NONMESH
G0 F600 X115.675 Y111.896 Z3.07
G0 F7200 X114.447 Y111.087
G0 X106.753 Y110.533
G0 X106.472 Y110.252
;TIME_ELAPSED:132.571963
;LAYER:28
;note -- min layer time used
;TYPE:WALL-OUTER
;MESH:Pi??ce1.STL
G1 F600 X106.472 Y111.332 E82.20914
G1 X114.348 Y111.332 E82.52418
G1 X115.675 Y112.657 E82.59919
G1 X116.437 Y111.896 E82.64226
G1 X114.793 Y110.252 E82.73526
G1 X106.472 Y110.252 E83.0681
G0 F7200 X106.472 Y110.452
G0 X106.842 Y110.622
;TYPE:WALL-INNER
G1 F716.5 X106.842 Y110.962 E83.07966
G1 X114.264 Y110.962 E83.33201
G1 F457.6 X114.87 Y111.092 E83.36362
G1 F450.6 X114.619 Y110.622 E83.39117
G1 F700.8 X106.842 Y110.622 E83.66103
G0 F7200 X114.87 Y111.092
G1 F328.8 X115.675 Y111.896 E83.73828
;MESH:NONMESH
G0 F600 X115.675 Y111.896 Z3.17
G0 F7200 X114.447 Y111.087
G0 X106.753 Y110.533
G0 X106.472 Y110.252
;TIME_ELAPSED:136.813238
;LAYER:29
;note -- min layer time used
;TYPE:WALL-OUTER
;MESH:Pi??ce1.STL
G1 F600 X106.472 Y111.332 E83.78148
G1 X114.348 Y111.332 E84.09652
G1 X115.675 Y112.657 E84.17153
G1 X116.437 Y111.896 E84.21461
G1 X114.793 Y110.252 E84.30761
G1 X106.472 Y110.252 E84.64045
G0 F7200 X106.472 Y110.452
G0 X106.842 Y110.622
;TYPE:WALL-INNER
G1 F716.5 X106.842 Y110.962 E84.65201
G1 X114.264 Y110.962 E84.90435
G1 F457.6 X114.87 Y111.092 E84.93596
G1 F450.6 X114.619 Y110.622 E84.96351
G1 F700.8 X106.842 Y110.622 E85.23337
G0 F7200 X114.87 Y111.092
G1 F328.8 X115.675 Y111.896 E85.31062
;MESH:NONMESH
G0 F600 X115.675 Y111.896 Z3.27
G0 F7200 X114.447 Y111.087
G0 X106.753 Y110.533
G0 X106.472 Y110.252
;TIME_ELAPSED:141.054512
;LAYER:30
;note -- min layer time used
;TYPE:WALL-OUTER
;MESH:Pi??ce1.STL
G1 F600 X106.472 Y111.332 E85.35382
G1 X114.348 Y111.332 E85.66886
G1 X115.675 Y112.657 E85.74387
G1 X116.437 Y111.896 E85.78695
G1 X114.793 Y110.252 E85.87995
G1 X106.472 Y110.252 E86.21279
G0 F7200 X106.472 Y110.452
G0 X106.842 Y110.622
;TYPE:WALL-INNER
G1 F716.5 X106.842 Y110.962 E86.22435
G1 X114.264 Y110.962 E86.4767
G1 F457.6 X114.87 Y111.092 E86.50831
G1 F450.6 X114.619 Y110.622 E86.53585
G1 F700.8 X106.842 Y110.622 E86.80572
G0 F7200 X114.87 Y111.092
G1 F328.8 X115.675 Y111.896 E86.88297
;MESH:NONMESH
G0 F600 X115.675 Y111.896 Z3.37
G0 F7200 X114.447 Y111.087
G0 X106.753 Y110.533
G0 X106.472 Y110.252
;TIME_ELAPSED:145.295787
;LAYER:31
;note -- min layer time used
;TYPE:WALL-OUTER
;MESH:Pi??ce1.STL
G1 F600 X106.472 Y111.332 E86.92617
G1 X114.348 Y111.332 E87.24121
G1 X115.675 Y112.657 E87.31622
G1 X116.437 Y111.896 E87.35929
G1 X114.793 Y110.252 E87.45229
G1 X106.472 Y110.252 E87.78513
G0 F7200 X106.472 Y110.452
G0 X106.842 Y110.622
;TYPE:WALL-INNER
G1 F716.5 X106.842 Y110.962 E87.79669
G1 X114.264 Y110.962 E88.04904
G1 F457.6 X114.87 Y111.092 E88.08065
G1 F450.6 X114.619 Y110.622 E88.1082
G1 F700.8 X106.842 Y110.622 E88.37806
G0 F7200 X114.87 Y111.092
G1 F328.8 X115.675 Y111.896 E88.45531
;MESH:NONMESH
G0 F600 X115.675 Y111.896 Z3.47
G0 F7200 X114.447 Y111.087
G0 X106.753 Y110.533
G0 X106.472 Y110.252
;TIME_ELAPSED:149.537062
;LAYER:32
;note -- min layer time used
;TYPE:WALL-OUTER
;MESH:Pi??ce1.STL
G1 F600 X106.472 Y111.332 E88.49851
G1 X114.348 Y111.332 E88.81355
G1 X115.675 Y112.657 E88.88856
G1 X116.437 Y111.896 E88.93164
G1 X114.793 Y110.252 E89.02464
G1 X106.472 Y110.252 E89.35748
G0 F7200 X106.472 Y110.452
G0 X106.842 Y110.622
;TYPE:WALL-INNER
G1 F716.5 X106.842 Y110.962 E89.36904
G1 X114.264 Y110.962 E89.62139
G1 F457.6 X114.87 Y111.092 E89.65299
G1 F450.6 X114.619 Y110.622 E89.68054
G1 F700.8 X106.842 Y110.622 E89.9504
G0 F7200 X114.87 Y111.092
G1 F328.8 X115.675 Y111.896 E90.02766
;MESH:NONMESH
G0 F600 X115.675 Y111.896 Z3.57
G0 F7200 X114.447 Y111.087
G0 X106.753 Y110.533
G0 X106.472 Y110.252
;TIME_ELAPSED:153.778337
;LAYER:33
;note -- min layer time used
;TYPE:WALL-OUTER
;MESH:Pi??ce1.STL
G1 F600 X106.472 Y111.332 E90.07086
G1 X114.348 Y111.332 E90.3859
G1 X115.675 Y112.657 E90.46091
G1 X116.437 Y111.896 E90.50398
G1 X114.793 Y110.252 E90.59698
G1 X106.472 Y110.252 E90.92982
G0 F7200 X106.472 Y110.452
G0 X106.842 Y110.622
;TYPE:WALL-INNER
G1 F716.5 X106.842 Y110.962 E90.94138
G1 X114.264 Y110.962 E91.19373
G1 F457.6 X114.87 Y111.092 E91.22534
G1 F450.6 X114.619 Y110.622 E91.25289
G1 F700.8 X106.842 Y110.622 E91.52275
G0 F7200 X114.87 Y111.092
G1 F328.8 X115.675 Y111.896 E91.6
;MESH:NONMESH
G0 F600 X115.675 Y111.896 Z3.67
G0 F7200 X114.447 Y111.087
G0 X106.753 Y110.533
G0 X106.472 Y110.252
;TIME_ELAPSED:158.019612
;LAYER:34
;note -- min layer time used
;TYPE:WALL-OUTER
;MESH:Pi??ce1.STL
G1 F600 X106.472 Y111.332 E91.6432
G1 X114.348 Y111.332 E91.95824
G1 X115.675 Y112.657 E92.03325
G1 X116.437 Y111.896 E92.07633
G1 X114.793 Y110.252 E92.16932
G1 X106.472 Y110.252 E92.50216
G0 F7200 X106.472 Y110.452
G0 X106.842 Y110.622
;TYPE:WALL-INNER
G1 F716.5 X106.842 Y110.962 E92.51372
G1 X114.264 Y110.962 E92.76607
G1 F457.6 X114.87 Y111.092 E92.79768
G1 F450.6 X114.619 Y110.622 E92.82523
G1 F700.8 X106.842 Y110.622 E93.09509
G0 F7200 X114.87 Y111.092
G1 F328.8 X115.675 Y111.896 E93.17234
;MESH:NONMESH
G0 F600 X115.675 Y111.896 Z3.77
G0 F7200 X114.447 Y111.087
G0 X106.753 Y110.533
G0 X106.472 Y110.252
;TIME_ELAPSED:162.260886
;LAYER:35
;note -- min layer time used
;TYPE:WALL-OUTER
;MESH:Pi??ce1.STL
G1 F600 X106.472 Y111.332 E93.21554
G1 X114.348 Y111.332 E93.53058
G1 X115.675 Y112.657 E93.60559
G1 X116.437 Y111.896 E93.64867
G1 X114.793 Y110.252 E93.74167
G1 X106.472 Y110.252 E94.07451
G0 F7200 X106.472 Y110.452
G0 X106.842 Y110.622
;TYPE:WALL-INNER
G1 F716.5 X106.842 Y110.962 E94.08607
G1 X114.264 Y110.962 E94.33842
G1 F457.6 X114.87 Y111.092 E94.37003
G1 F450.6 X114.619 Y110.622 E94.39757
G1 F700.8 X106.842 Y110.622 E94.66743
G0 F7200 X114.87 Y111.092
G1 F328.8 X115.675 Y111.896 E94.74469
;MESH:NONMESH
G0 F600 X115.675 Y111.896 Z3.87
G0 F7200 X114.447 Y111.087
G0 X106.753 Y110.533
G0 X106.472 Y110.252
;TIME_ELAPSED:166.502161
;LAYER:36
;note -- min layer time used
;TYPE:WALL-OUTER
;MESH:Pi??ce1.STL
G1 F600 X106.472 Y111.332 E94.78789
G1 X114.348 Y111.332 E95.10293
G1 X115.675 Y112.657 E95.17794
G1 X116.437 Y111.896 E95.22101
G1 X114.793 Y110.252 E95.31401
G1 X106.472 Y110.252 E95.64685
G0 F7200 X106.472 Y110.452
G0 X106.842 Y110.622
;TYPE:WALL-INNER
G1 F716.5 X106.842 Y110.962 E95.65841
G1 X114.264 Y110.962 E95.91076
G1 F457.6 X114.87 Y111.092 E95.94237
G1 F450.6 X114.619 Y110.622 E95.96992
G1 F700.8 X106.842 Y110.622 E96.23978
G0 F7200 X114.87 Y111.092
G1 F328.8 X115.675 Y111.896 E96.31703
;MESH:NONMESH
G0 F600 X115.675 Y111.896 Z3.97
G0 F7200 X114.447 Y111.087
G0 X106.753 Y110.533
G0 X106.472 Y110.252
;TIME_ELAPSED:170.743436
;LAYER:37
;note -- min layer time used
;TYPE:WALL-OUTER
;MESH:Pi??ce1.STL
G1 F600 X106.472 Y111.332 E96.36023
G1 X114.348 Y111.332 E96.67527
G1 X115.675 Y112.657 E96.75028
G1 X116.437 Y111.896 E96.79336
G1 X114.793 Y110.252 E96.88636
G1 X106.472 Y110.252 E97.2192
G0 F7200 X106.472 Y110.452
G0 X106.842 Y110.622
;TYPE:WALL-INNER
G1 F716.5 X106.842 Y110.962 E97.23076
G1 X114.264 Y110.962 E97.4831
G1 F457.6 X114.87 Y111.092 E97.51471
G1 F450.6 X114.619 Y110.622 E97.54226
G1 F700.8 X106.842 Y110.622 E97.81212
G10
G0 F7200 X106.842 Y109.357
G0 X105.589 Y109.369
G0 X105.589 Y112.217
G0 X113.977 Y112.225
G0 X114.87 Y111.092
G11
G1 F328.8 X115.675 Y111.896 E97.88937
;TIME_ELAPSED:175.340299
G10
M107
;Version _2.6 of the firmware can abort the print too early if the file ends
;too soon. However if the file hasn't ended yet because there are comments at
;the end of the file, it won't abort yet. Therefore we have to put at least 512
;bytes at the end of the g-code so that the file is not yet finished by the
;time that the motion planner gets flushed. With firmware version _3.3 this
;should be fixed, so this comment wouldn't be necessary any more. Now we have
;to pad this text to make precisely 512 bytes.
M82 ;absolute extrusion mode
;End of Gcode
;SETTING_3 {"global_quality": "[general]\\nversion = 4\\nname = Fine #2\\ndefini
;SETTING_3 tion = ultimaker2_plus\\n\\n[metadata]\\ntype = quality_changes\\nqua
;SETTING_3 lity_type = normal\\nsetting_version = 25\\n\\n[values]\\nadhesion_ty
;SETTING_3 pe = skirt\\n\\n", "extruder_quality": ["[general]\\nversion = 4\\nna
;SETTING_3 me = Fine #2\\ndefinition = ultimaker2_plus\\n\\n[metadata]\\ntype = 
;SETTING_3 quality_changes\\nquality_type = normal\\nsetting_version = 25\\nposi
;SETTING_3 tion = 0\\n\\n[values]\\nbrim_line_count = 5\\ninfill_sparse_density 
;SETTING_3 = 0\\nspeed_layer_0 = 29.0\\nz_seam_type = shortest\\n\\n"]}
